STARLINK-36033          
1 66893U 25283R   25364.25002315 -.02090418  00000+0 -42483-1 0  9997
2 66893  53.1590 347.3689 0001330 103.6215 244.0921 15.49189591  5247
STARLINK-35718          
1 66894U 25283S   25364.25002315 -.00076174  00000+0 -13742-2 0  9996
2 66894  53.1588 347.3655 0001282  92.4302 257.2380 15.49323719  5243
STARLINK-35971          
1 66895U 25283T   25364.25002315 -.00055328  00000+0 -99294-3 0  9992
2 66895  53.1587 347.3557 0001359  89.7225 263.7668 15.49332274  5249
STARLINK-35791          
1 66896U 25283U   25364.25002315 -.00080967  00000+0 -14620-2 0  9999
2 66896  53.1588 347.3599 0001338  80.4592 271.1272 15.49324606  5243
STARLINK-36079          
1 66897U 25283V   25364.25002315 -.00063508  00000+0 -11421-2 0  9998
2 66897  53.1589 347.3524 0001209  91.7357 263.6714 15.49333032  5244
STARLINK-36065          
1 66898U 25283W   25364.25002315 -.00040225  00000+0 -71897-3 0  9994
2 66898  53.1588 347.3478 0001293  86.7932 270.5439 15.49305769  5245
STARLINK-36064          
1 66899U 25283X   25364.25002315 -.00107823  00000+0 -19554-2 0  9994
2 66899  53.1588 347.3445 0001295  89.9720 269.2833 15.49337099  5189
STARLINK-36074          
1 66900U 25283Y   25364.25002315 -.00088668  00000+0 -16032-2 0  9990
2 66900  53.1589 347.3404 0001442  86.1897 274.9813 15.49328116  5244
STARLINK-36043          
1 66901U 25283Z   25364.25002315 -.00151717  00000+0 -27657-2 0  9992
2 66901  53.1590 347.3353 0001089  90.9018 272.1636 15.49384058  5245
STARLINK-35983          
1 66902U 25283AA  25364.25002315 -.00102983  00000+0 -18663-2 0  9991
2 66902  53.1589 347.3319 0001261  89.8874 275.1154 15.49335553  5249
STARLINK-36077          
1 66903U 25283AB  25364.25002315 -.00097343  00000+0 -17625-2 0  9992
2 66903  53.1589 347.3283 0001306  87.2597 279.6633 15.49332285  5244
STARLINK-36059          
1 66904U 25283AC  25364.25002315 -.00106662  00000+0 -19340-2 0  9994
2 66904  53.1590 347.3236 0001319  96.4968 272.3387 15.49336958  5240
