CCSDS_OMM_VERS = 2.0
CREATION_DATE  = 
ORIGINATOR     = 

OBJECT_NAME    = STARLINK-36033
OBJECT_ID      = 2025-283R
CENTER_NAME    = EARTH
REF_FRAME      = TEME
TIME_SYSTEM    = UTC
MEAN_ELEMENT_THEORY = SGP/SGP4

EPOCH          = 2025-12-30T06:00:02.000160
MEAN_MOTION    = 15.49189591
ECCENTRICITY   = .00013302
INCLINATION    = 53.1590
RA_OF_ASC_NODE = 347.3689
ARG_OF_PERICENTER = 103.6215
MEAN_ANOMALY   = 244.0921

EPHEMERIS_TYPE = 0
CLASSIFICATION_TYPE = U
NORAD_CAT_ID   = 66893
ELEMENT_SET_NO = 999
REV_AT_EPOCH   = 524
BSTAR          = -.42482739E-1
MEAN_MOTION_DOT = -.2090418E-1
MEAN_MOTION_DDOT = 0

CCSDS_OMM_VERS = 2.0
CREATION_DATE  = 
ORIGINATOR     = 

OBJECT_NAME    = STARLINK-35718
OBJECT_ID      = 2025-283S
CENTER_NAME    = EARTH
REF_FRAME      = TEME
TIME_SYSTEM    = UTC
MEAN_ELEMENT_THEORY = SGP/SGP4

EPOCH          = 2025-12-30T06:00:02.000160
MEAN_MOTION    = 15.49323719
ECCENTRICITY   = .00012828
INCLINATION    = 53.1588
RA_OF_ASC_NODE = 347.3655
ARG_OF_PERICENTER = 92.4302
MEAN_ANOMALY   = 257.2380

EPHEMERIS_TYPE = 0
CLASSIFICATION_TYPE = U
NORAD_CAT_ID   = 66894
ELEMENT_SET_NO = 999
REV_AT_EPOCH   = 524
BSTAR          = -.13741704E-2
MEAN_MOTION_DOT = -.76174E-3
MEAN_MOTION_DDOT = 0

CCSDS_OMM_VERS = 2.0
CREATION_DATE  = 
ORIGINATOR     = 

OBJECT_NAME    = STARLINK-35971
OBJECT_ID      = 2025-283T
CENTER_NAME    = EARTH
REF_FRAME      = TEME
TIME_SYSTEM    = UTC
MEAN_ELEMENT_THEORY = SGP/SGP4

EPOCH          = 2025-12-30T06:00:02.000160
MEAN_MOTION    = 15.49332274
ECCENTRICITY   = .00013595
INCLINATION    = 53.1587
RA_OF_ASC_NODE = 347.3557
ARG_OF_PERICENTER = 89.7225
MEAN_ANOMALY   = 263.7668

EPHEMERIS_TYPE = 0
CLASSIFICATION_TYPE = U
NORAD_CAT_ID   = 66895
ELEMENT_SET_NO = 999
REV_AT_EPOCH   = 524
BSTAR          = -.99294172E-3
MEAN_MOTION_DOT = -.55328E-3
MEAN_MOTION_DDOT = 0

CCSDS_OMM_VERS = 2.0
CREATION_DATE  = 
ORIGINATOR     = 

OBJECT_NAME    = STARLINK-35791
OBJECT_ID      = 2025-283U
CENTER_NAME    = EARTH
REF_FRAME      = TEME
TIME_SYSTEM    = UTC
MEAN_ELEMENT_THEORY = SGP/SGP4

EPOCH          = 2025-12-30T06:00:02.000160
MEAN_MOTION    = 15.49324606
ECCENTRICITY   = .00013388
INCLINATION    = 53.1588
RA_OF_ASC_NODE = 347.3599
ARG_OF_PERICENTER = 80.4592
MEAN_ANOMALY   = 271.1272

EPHEMERIS_TYPE = 0
CLASSIFICATION_TYPE = U
NORAD_CAT_ID   = 66896
ELEMENT_SET_NO = 999
REV_AT_EPOCH   = 524
BSTAR          = -.14619995E-2
MEAN_MOTION_DOT = -.80967E-3
MEAN_MOTION_DDOT = 0

CCSDS_OMM_VERS = 2.0
CREATION_DATE  = 
ORIGINATOR     = 

OBJECT_NAME    = STARLINK-36079
OBJECT_ID      = 2025-283V
CENTER_NAME    = EARTH
REF_FRAME      = TEME
TIME_SYSTEM    = UTC
MEAN_ELEMENT_THEORY = SGP/SGP4

EPOCH          = 2025-12-30T06:00:02.000160
MEAN_MOTION    = 15.49333032
ECCENTRICITY   = .00012094
INCLINATION    = 53.1589
RA_OF_ASC_NODE = 347.3524
ARG_OF_PERICENTER = 91.7357
MEAN_ANOMALY   = 263.6714

EPHEMERIS_TYPE = 0
CLASSIFICATION_TYPE = U
NORAD_CAT_ID   = 66897
ELEMENT_SET_NO = 999
REV_AT_EPOCH   = 524
BSTAR          = -.11421232E-2
MEAN_MOTION_DOT = -.63508E-3
MEAN_MOTION_DDOT = 0

CCSDS_OMM_VERS = 2.0
CREATION_DATE  = 
ORIGINATOR     = 

OBJECT_NAME    = STARLINK-36065
OBJECT_ID      = 2025-283W
CENTER_NAME    = EARTH
REF_FRAME      = TEME
TIME_SYSTEM    = UTC
MEAN_ELEMENT_THEORY = SGP/SGP4

EPOCH          = 2025-12-30T06:00:02.000160
MEAN_MOTION    = 15.49305769
ECCENTRICITY   = .00012939
INCLINATION    = 53.1588
RA_OF_ASC_NODE = 347.3478
ARG_OF_PERICENTER = 86.7932
MEAN_ANOMALY   = 270.5439

EPHEMERIS_TYPE = 0
CLASSIFICATION_TYPE = U
NORAD_CAT_ID   = 66898
ELEMENT_SET_NO = 999
REV_AT_EPOCH   = 524
BSTAR          = -.71897102E-3
MEAN_MOTION_DOT = -.40225E-3
MEAN_MOTION_DDOT = 0

CCSDS_OMM_VERS = 2.0
CREATION_DATE  = 
ORIGINATOR     = 

OBJECT_NAME    = STARLINK-36064
OBJECT_ID      = 2025-283X
CENTER_NAME    = EARTH
REF_FRAME      = TEME
TIME_SYSTEM    = UTC
MEAN_ELEMENT_THEORY = SGP/SGP4

EPOCH          = 2025-12-30T06:00:02.000160
MEAN_MOTION    = 15.49337099
ECCENTRICITY   = .00012955
INCLINATION    = 53.1588
RA_OF_ASC_NODE = 347.3445
ARG_OF_PERICENTER = 89.9720
MEAN_ANOMALY   = 269.2833

EPHEMERIS_TYPE = 0
CLASSIFICATION_TYPE = U
NORAD_CAT_ID   = 66899
ELEMENT_SET_NO = 999
REV_AT_EPOCH   = 518
BSTAR          = -.19554465E-2
MEAN_MOTION_DOT = -.107823E-2
MEAN_MOTION_DDOT = 0

CCSDS_OMM_VERS = 2.0
CREATION_DATE  = 
ORIGINATOR     = 

OBJECT_NAME    = STARLINK-36074
OBJECT_ID      = 2025-283Y
CENTER_NAME    = EARTH
REF_FRAME      = TEME
TIME_SYSTEM    = UTC
MEAN_ELEMENT_THEORY = SGP/SGP4

EPOCH          = 2025-12-30T06:00:02.000160
MEAN_MOTION    = 15.49328116
ECCENTRICITY   = .00014421
INCLINATION    = 53.1589
RA_OF_ASC_NODE = 347.3404
ARG_OF_PERICENTER = 86.1897
MEAN_ANOMALY   = 274.9813

EPHEMERIS_TYPE = 0
CLASSIFICATION_TYPE = U
NORAD_CAT_ID   = 66900
ELEMENT_SET_NO = 999
REV_AT_EPOCH   = 524
BSTAR          = -.16031846E-2
MEAN_MOTION_DOT = -.88668E-3
MEAN_MOTION_DDOT = 0

CCSDS_OMM_VERS = 2.0
CREATION_DATE  = 
ORIGINATOR     = 

OBJECT_NAME    = STARLINK-36043
OBJECT_ID      = 2025-283Z
CENTER_NAME    = EARTH
REF_FRAME      = TEME
TIME_SYSTEM    = UTC
MEAN_ELEMENT_THEORY = SGP/SGP4

EPOCH          = 2025-12-30T06:00:02.000160
MEAN_MOTION    = 15.49384058
ECCENTRICITY   = .00010899
INCLINATION    = 53.1590
RA_OF_ASC_NODE = 347.3353
ARG_OF_PERICENTER = 90.9018
MEAN_ANOMALY   = 272.1636

EPHEMERIS_TYPE = 0
CLASSIFICATION_TYPE = U
NORAD_CAT_ID   = 66901
ELEMENT_SET_NO = 999
REV_AT_EPOCH   = 524
BSTAR          = -.27656805E-2
MEAN_MOTION_DOT = -.151717E-2
MEAN_MOTION_DDOT = 0

CCSDS_OMM_VERS = 2.0
CREATION_DATE  = 
ORIGINATOR     = 

OBJECT_NAME    = STARLINK-35983
OBJECT_ID      = 2025-283AA
CENTER_NAME    = EARTH
REF_FRAME      = TEME
TIME_SYSTEM    = UTC
MEAN_ELEMENT_THEORY = SGP/SGP4

EPOCH          = 2025-12-30T06:00:02.000160
MEAN_MOTION    = 15.49335553
ECCENTRICITY   = .00012613
INCLINATION    = 53.1589
RA_OF_ASC_NODE = 347.3319
ARG_OF_PERICENTER = 89.8874
MEAN_ANOMALY   = 275.1154

EPHEMERIS_TYPE = 0
CLASSIFICATION_TYPE = U
NORAD_CAT_ID   = 66902
ELEMENT_SET_NO = 999
REV_AT_EPOCH   = 524
BSTAR          = -.186625E-2
MEAN_MOTION_DOT = -.102983E-2
MEAN_MOTION_DDOT = 0

CCSDS_OMM_VERS = 2.0
CREATION_DATE  = 
ORIGINATOR     = 

OBJECT_NAME    = STARLINK-36077
OBJECT_ID      = 2025-283AB
CENTER_NAME    = EARTH
REF_FRAME      = TEME
TIME_SYSTEM    = UTC
MEAN_ELEMENT_THEORY = SGP/SGP4

EPOCH          = 2025-12-30T06:00:02.000160
MEAN_MOTION    = 15.49332285
ECCENTRICITY   = .00013068
INCLINATION    = 53.1589
RA_OF_ASC_NODE = 347.3283
ARG_OF_PERICENTER = 87.2597
MEAN_ANOMALY   = 279.6633

EPHEMERIS_TYPE = 0
CLASSIFICATION_TYPE = U
NORAD_CAT_ID   = 66903
ELEMENT_SET_NO = 999
REV_AT_EPOCH   = 524
BSTAR          = -.17625285E-2
MEAN_MOTION_DOT = -.97343E-3
MEAN_MOTION_DDOT = 0

CCSDS_OMM_VERS = 2.0
CREATION_DATE  = 
ORIGINATOR     = 

OBJECT_NAME    = STARLINK-36059
OBJECT_ID      = 2025-283AC
CENTER_NAME    = EARTH
REF_FRAME      = TEME
TIME_SYSTEM    = UTC
MEAN_ELEMENT_THEORY = SGP/SGP4

EPOCH          = 2025-12-30T06:00:02.000160
MEAN_MOTION    = 15.49336958
ECCENTRICITY   = .00013192
INCLINATION    = 53.1590
RA_OF_ASC_NODE = 347.3236
ARG_OF_PERICENTER = 96.4968
MEAN_ANOMALY   = 272.3387

EPHEMERIS_TYPE = 0
CLASSIFICATION_TYPE = U
NORAD_CAT_ID   = 66904
ELEMENT_SET_NO = 999
REV_AT_EPOCH   = 524
BSTAR          = -.19340229E-2
MEAN_MOTION_DOT = -.106662E-2
MEAN_MOTION_DDOT = 0

